OSCAR 7 (AO-7)          
1 07530U 74089B   26189.04087645 -.00000046  00000+0  35790-5 0  9992
2 07530 101.9901 202.5047 0012665  91.5455 288.7781 12.53698398363138
PHASE 3B (AO-10)        
1 14129U 83058B   26187.30639496  .00000240  00000+0  00000+0 0  9999
2 14129  25.9287 216.4111 6004451 120.9204 311.3694  2.05868973295883
UOSAT 2 (UO-11)         
1 14781U 84021B   26188.89405927  .00000895  00000+0  96543-4 0  9997
2 14781  97.8070 154.2393 0009113 111.3965 248.8226 14.90836121260219
LUSAT (LO-19)           
1 20442U 90005G   26189.04277025  .00000061  00000+0  38362-4 0  9991
2 20442  98.8846 211.4224 0012259 140.9212 219.2860 14.34129247905381
EYESAT A (AO-27)        
1 22825U 93061C   26189.11683265  .00000047  00000+0  34679-4 0  9999
2 22825  98.6871 256.5218 0009125  45.2214 314.9710 14.30947799709996
ITAMSAT (IO-26)         
1 22826U 93061D   26189.15990087  .00000054  00000+0  37398-4 0  9996
2 22826  98.6819 256.4845 0009372  29.1893 330.9812 14.31375308710313
RADIO ROSTO (RS15)      
1 23439U 94085A   26189.22398462 -.00000039  00000+0  10696-3 0  9996
2 23439  64.8164 269.1949 0156663 359.9933   0.0965 11.27583464298279
JAS-2 (FO-29)           
1 24278U 96046B   26188.79062142 -.00000010  00000+0  24150-4 0  9991
2 24278  98.5224  34.8386 0350647  43.1200 319.6844 13.53275077475957
TECHSAT 1B (GO-32)      
1 25397U 98043D   26188.92653238  .00000035  00000+0  35213-4 0  9998
2 25397  99.0078 182.2091 0001992 126.6982 233.4379 14.24432329454287
ISS (ZARYA)             
1 25544U 98067A   26189.15353387  .00005161  00000+0  10196-3 0  9993
2 25544  51.6304 196.3226 0006696 270.4034  89.6187 15.48940380575005
PCSAT (NO-44)           
1 26931U 01043C   26187.71597949  .00000106  00000+0  70598-4 0  9993
2 26931  67.0487 193.7609 0005988 265.9645  94.0772 14.31962724293245
SAUDISAT 1C (SO-50)     
1 27607U 02058C   26189.05902169  .00000576  00000+0  85741-4 0  9991
2 27607  64.5519  64.4071 0074727 258.5866 100.6840 14.83089154267550
CUTE-1 (CO-55)          
1 27844U 03031E   26188.97099578  .00000205  00000+0  10756-3 0  9999
2 27844  98.6738 197.2685 0010647 121.3306 238.8916 14.24348325194636
CUBESAT XI-IV (CO-57)   
1 27848U 03031J   26188.47791579  .00000195  00000+0  10456-3 0  9993
2 27848  98.6771 196.4779 0010210 139.6848 220.5090 14.23631593194262
MOZHAETS 4 (RS22)       
1 27939U 03042A   26189.20644108  .00000315  00000+0  56690-4 0  9998
2 27939  98.3480  14.1597 0010680 196.0021 283.9880 14.73505243218648
CUBESAT XI-V            
1 28895U 05043F   26188.92203634  .00001095  00000+0  17970-3 0  9999
2 28895  98.3007 344.9821 0014992 136.5809 223.6582 14.72688972104804
CUTE-1.7+APD II (CO-65) 
1 32785U 08021C   26189.19524789  .00002549  00000+0  16252-3 0  9995
2 32785  97.8287 171.0546 0007498 328.2135  31.8640 15.09657730988363
SEEDS II (CO-66)        
1 32791U 08021J   26188.95639046  .00011298  00000+0  35145-3 0  9991
2 32791  97.7528 187.8563 0002230 173.1591 186.9681 15.33491241990475
YUBILEINY (RS30)        
1 32953U 08025A   26189.18371587  .00000052  00000+0  30596-3 0  9995
2 32953  82.5059 342.3779 0018516 265.3032  94.5933 12.43180440822305
KKS-1 (KISEKI)          
1 33499U 09002H   26189.03583273  .00000977  00000+0  12655-3 0  9990
2 33499  98.1180 111.8085 0006869 214.3199 145.7571 14.83177129939283
SWISSCUBE               
1 35932U 09051B   26189.17253486  .00000734  00000+0  15442-3 0  9991
2 35932  98.4017  97.4251 0007478 138.1087 222.0687 14.62521876892227
BEESAT-1                
1 35933U 09051C   26188.71376992  .00000676  00000+0  14545-3 0  9997
2 35933  98.3945  96.5507 0005671 149.9217 210.2310 14.61753962892188
ITUPSAT1                
1 35935U 09051E   26188.72265193  .00000618  00000+0  13755-3 0  9998
2 35935  98.4027  95.7297 0007547 164.8857 195.2569 14.60471459891734
XIWANG-1 (HOPE-1)       
1 36122U 09072B   26189.14363872  .00000401  00000+0  11668-2 0  9990
2 36122 100.4036 142.6417 0007328 180.7571 179.3531 13.16441599795760
O/OREOS (USA 219)       
1 37224U 10062C   26189.02310743  .00001283  00000+0  12664-3 0  9998
2 37224  71.9709  33.1384 0013520  19.2544 340.9135 14.93833192119752
JUGNU                   
1 37839U 11058B   26189.11840688  .00000386  00000+0  61884-4 0  9994
2 37839  19.9588 181.2607 0018359 307.9643 119.1069 14.13782065761991
SRMSAT                  
1 37841U 11058D   26188.51395409  .00000364  00000+0  53720-4 0  9992
2 37841  19.9725 296.4406 0011878  67.5382  21.1361 14.11579854760692
STRAND-1                
1 39090U 13009E   26188.45511461  .00000234  00000+0  93038-4 0  9991
2 39090  98.3931   8.1913 0008963 162.7350 197.4144 14.37175624699978
ZACUBE-1 (TSHEPISOSAT)  
1 39417U 13066B   26188.93645073  .00001404  00000+0  11193-3 0  9998
2 39417  97.8020 151.3770 0043545 178.4838 181.6525 15.01306371683840
GOMX-1                  
1 39430U 13066Q   26189.15806150  .00001289  00000+0  19899-3 0  9995
2 39430  97.6475  28.2971 0128944  10.7945 349.5982 14.69531446672998
